{"type": "FeatureCollection", "features": [ {"type": "Feature", "properties": {"norad_id": 33939, "name": "COSMOS 2251 DEB", "group": "cosmos-2251-debris", "lat": -38.121008932016416, "lon": 45.28232118317565, "alt_km": 569.390408220228, "timestamp": "2025-12-23T16:57:12.747899+00:00", "meta": {"OBJECT_NAME": "COSMOS 2251 DEB", "OBJECT_ID": "1993-036EU", "EPOCH": "2025-12-23T04:19:50.752992", "MEAN_MOTION": 15.00579102, "ECCENTRICITY": 0.00048067, "INCLINATION": 74.0057, "RA_OF_ASC_NODE": 59.3611, "ARG_OF_PERICENTER": 20.8627, "MEAN_ANOMALY": 339.2755, "EPHEMERIS_TYPE": 0, "CLASSIFICATION_TYPE": "U", "NORAD_CAT_ID": 33939, "ELEMENT_SET_NO": 999, "REV_AT_EPOCH": 88909, "BSTAR": 0.002915165, "MEAN_MOTION_DOT": 0.00036981, "MEAN_MOTION_DDOT": 0}, "tle": {"line1": "1 33939U 93036EU  25357.18044853  .00036981  00000+0  29152-2 0  9990", "line2": "2 33939  74.0057  59.3611 0004806  20.8627 339.2755 15.00579102889098"}}, "geometry": {"type": "Point", "coordinates": [45.28232118317565, -38.121008932016416]}}, {"type": "Feature", "properties": {"norad_id": 33940, "name": "COSMOS 2251 DEB", "group": "cosmos-2251-debris", "lat": -69.41473007800478, "lon": -7.7469524475998774, "alt_km": 699.1317244813126, "timestamp": "2025-12-23T16:57:12.747910+00:00", "meta": {"OBJECT_NAME": "COSMOS 2251 DEB", "OBJECT_ID": "1993-036EV", "EPOCH": "2025-12-22T10:25:00.117696", "MEAN_MOTION": 14.58882175, "ECCENTRICITY": 0.00108483, "INCLINATION": 74.04, "RA_OF_ASC_NODE": 125.0376, "ARG_OF_PERICENTER": 205.6735, "MEAN_ANOMALY": 211.3007, "EPHEMERIS_TYPE": 0, "CLASSIFICATION_TYPE": "U", "NORAD_CAT_ID": 33940, "ELEMENT_SET_NO": 999, "REV_AT_EPOCH": 88735, "BSTAR": 0.0011603025, "MEAN_MOTION_DOT": 5.413e-05, "MEAN_MOTION_DDOT": 0}, "tle": {"line1": "1 33940U 93036EV  25356.43402914  .00005413  00000+0  11603-2 0  9993", "line2": "2 33940  74.0400 125.0376 0010848 205.6735 211.3007 14.58882175887353"}}, "geometry": {"type": "Point", "coordinates": [-7.7469524475998774, -69.41473007800478]}}, {"type": "Feature", "properties": {"norad_id": 33942, "name": "COSMOS 2251 DEB", "group": "cosmos-2251-debris", "lat": -8.08426334907149, "lon": -107.69766054109807, "alt_km": 754.4478296776861, "timestamp": "2025-12-23T16:57:12.747920+00:00", "meta": {"OBJECT_NAME": "COSMOS 2251 DEB", "OBJECT_ID": "1993-036EX", "EPOCH": "2025-12-23T04:12:58.325184", "MEAN_MOTION": 14.38002476, "ECCENTRICITY": 0.00207428, "INCLINATION": 74.0363, "RA_OF_ASC_NODE": 255.6096, "ARG_OF_PERICENTER": 337.0035, "MEAN_ANOMALY": 148.294, "EPHEMERIS_TYPE": 0, "CLASSIFICATION_TYPE": "U", "NORAD_CAT_ID": 33942, "ELEMENT_SET_NO": 999, "REV_AT_EPOCH": 88284, "BSTAR": 0.00019459883, "MEAN_MOTION_DOT": 5.64e-06, "MEAN_MOTION_DDOT": 0}, "tle": {"line1": "1 33942U 93036EX  25357.17567506  .00000564  00000+0  19460-3 0  9998", "line2": "2 33942  74.0363 255.6096 0020742 337.0035 148.2940 14.38002476882848"}}, "geometry": {"type": "Point", "coordinates": [-107.69766054109807, -8.08426334907149]}}, {"type": "Feature", "properties": {"norad_id": 33944, "name": "COSMOS 2251 DEB", "group": "cosmos-2251-debris", "lat": -20.18061308945286, "lon": 114.78734468067675, "alt_km": 852.2564204944665, "timestamp": "2025-12-23T16:57:12.747931+00:00", "meta": {"OBJECT_NAME": "COSMOS 2251 DEB", "OBJECT_ID": "1993-036EZ", "EPOCH": "2025-12-23T04:51:54.730656", "MEAN_MOTION": 14.37365922, "ECCENTRICITY": 0.01126246, "INCLINATION": 74.0408, "RA_OF_ASC_NODE": 289.6763, "ARG_OF_PERICENTER": 26.6105, "MEAN_ANOMALY": 88.9456, "EPHEMERIS_TYPE": 0, "CLASSIFICATION_TYPE": "U", "NORAD_CAT_ID": 33944, "ELEMENT_SET_NO": 999, "REV_AT_EPOCH": 88178, "BSTAR": 0.00033623099, "MEAN_MOTION_DOT": 1.053e-05, "MEAN_MOTION_DDOT": 0}, "tle": {"line1": "1 33944U 93036EZ  25357.20271679  .00001053  00000+0  33623-3 0  9998", "line2": "2 33944  74.0408 289.6763 0112624  26.6105  88.9456 14.37365922881789"}}, "geometry": {"type": "Point", "coordinates": [114.78734468067675, -20.18061308945286]}}, {"type": "Feature", "properties": {"norad_id": 33945, "name": "COSMOS 2251 DEB", "group": "cosmos-2251-debris", "lat": -60.63351882699014, "lon": 136.76329175707411, "alt_km": 792.2288855481547, "timestamp": "2025-12-23T16:57:12.747941+00:00", "meta": {"OBJECT_NAME": "COSMOS 2251 DEB", "OBJECT_ID": "1993-036FA", "EPOCH": "2025-12-23T05:46:22.184256", "MEAN_MOTION": 14.34608649, "ECCENTRICITY": 0.00223585, "INCLINATION": 74.0303, "RA_OF_ASC_NODE": 287.026, "ARG_OF_PERICENTER": 10.5634, "MEAN_ANOMALY": 349.5983, "EPHEMERIS_TYPE": 0, "CLASSIFICATION_TYPE": "U", "NORAD_CAT_ID": 33945, "ELEMENT_SET_NO": 999, "REV_AT_EPOCH": 88166, "BSTAR": 0.00012250601, "MEAN_MOTION_DOT": 3.21e-06, "MEAN_MOTION_DDOT": 0}, "tle": {"line1": "1 33945U 93036FA  25357.24053454  .00000321  00000+0  12251-3 0  9993", "line2": "2 33945  74.0303 287.0260 0022358  10.5634 349.5983 14.34608649881662"}}, "geometry": {"type": "Point", "coordinates": [136.76329175707411, -60.63351882699014]}}, {"type": "Feature", "properties": {"norad_id": 33948, "name": "COSMOS 2251 DEB", "group": "cosmos-2251-debris", "lat": 42.797465636095914, "lon": 89.64355360192341, "alt_km": 781.111101265451, "timestamp": "2025-12-23T16:57:12.747951+00:00", "meta": {"OBJECT_NAME": "COSMOS 2251 DEB", "OBJECT_ID": "1993-036FD", "EPOCH": "2025-12-23T04:37:16.173984", "MEAN_MOTION": 14.35640964, "ECCENTRICITY": 0.00231975, "INCLINATION": 74.0361, "RA_OF_ASC_NODE": 285.9556, "ARG_OF_PERICENTER": 359.2739, "MEAN_ANOMALY": 0.8376, "EPHEMERIS_TYPE": 0, "CLASSIFICATION_TYPE": "U", "NORAD_CAT_ID": 33948, "ELEMENT_SET_NO": 999, "REV_AT_EPOCH": 88173, "BSTAR": 0.00018477355, "MEAN_MOTION_DOT": 5.08e-06, "MEAN_MOTION_DDOT": 0}, "tle": {"line1": "1 33948U 93036FD  25357.19254831  .00000508  00000+0  18477-3 0  9995", "line2": "2 33948  74.0361 285.9556 0023197 359.2739   0.8376 14.35640964881733"}}, "geometry": {"type": "Point", "coordinates": [89.64355360192341, 42.797465636095914]}}, {"type": "Feature", "properties": {"norad_id": 33971, "name": "COSMOS 2251 DEB", "group": "cosmos-2251-debris", "lat": 4.152047949309669, "lon": -125.34260621029863, "alt_km": 749.9703712507844, "timestamp": "2025-12-23T16:57:12.747962+00:00", "meta": {"OBJECT_NAME": "COSMOS 2251 DEB", "OBJECT_ID": "1993-036FE", "EPOCH": "2025-12-23T02:41:37.760640", "MEAN_MOTION": 14.39742384, "ECCENTRICITY": 0.00189477, "INCLINATION": 74.0241, "RA_OF_ASC_NODE": 234.5635, "ARG_OF_PERICENTER": 333.3241, "MEAN_ANOMALY": 192.6861, "EPHEMERIS_TYPE": 0, "CLASSIFICATION_TYPE": "U", "NORAD_CAT_ID": 33971, "ELEMENT_SET_NO": 999, "REV_AT_EPOCH": 88288, "BSTAR": 0.00023818106, "MEAN_MOTION_DOT": 7.21e-06, "MEAN_MOTION_DDOT": 0}, "tle": {"line1": "1 33971U 93036FE  25357.11224260  .00000721  00000+0  23818-3 0  9998", "line2": "2 33971  74.0241 234.5635 0018947 333.3241 192.6861 14.39742384882881"}}, "geometry": {"type": "Point", "coordinates": [-125.34260621029863, 4.152047949309669]}}, {"type": "Feature", "properties": {"norad_id": 33972, "name": "COSMOS 2251 DEB", "group": "cosmos-2251-debris", "lat": 14.15672366851877, "lon": -13.684586853492025, "alt_km": 858.6362555362048, "timestamp": "2025-12-23T16:57:12.747972+00:00", "meta": {"OBJECT_NAME": "COSMOS 2251 DEB", "OBJECT_ID": "1993-036FF", "EPOCH": "2025-12-22T11:54:25.691616", "MEAN_MOTION": 14.36292058, "ECCENTRICITY": 0.01238157, "INCLINATION": 73.9934, "RA_OF_ASC_NODE": 172.696, "ARG_OF_PERICENTER": 338.2339, "MEAN_ANOMALY": 51.7728, "EPHEMERIS_TYPE": 0, "CLASSIFICATION_TYPE": "U", "NORAD_CAT_ID": 33972, "ELEMENT_SET_NO": 999, "REV_AT_EPOCH": 87214, "BSTAR": 0.0012268858, "MEAN_MOTION_DOT": 3.888e-05, "MEAN_MOTION_DDOT": 0}, "tle": {"line1": "1 33972U 93036FF  25356.49613069  .00003888  00000+0  12269-2 0  9992", "line2": "2 33972  73.9934 172.6960 0123815 338.2339  51.7728 14.36292058872145"}}, "geometry": {"type": "Point", "coordinates": [-13.684586853492025, 14.15672366851877]}}, {"type": "Feature", "properties": {"norad_id": 33973, "name": "COSMOS 2251 DEB", "group": "cosmos-2251-debris", "lat": -72.75553478106639, "lon": 14.919694257202014, "alt_km": 715.5072097917109, "timestamp": "2025-12-23T16:57:12.747983+00:00", "meta": {"OBJECT_NAME": "COSMOS 2251 DEB", "OBJECT_ID": "1993-036FG", "EPOCH": "2025-12-23T05:48:36.650304", "MEAN_MOTION": 14.45401675, "ECCENTRICITY": 0.00473849, "INCLINATION": 74.0086, "RA_OF_ASC_NODE": 83.2841, "ARG_OF_PERICENTER": 259.7782, "MEAN_ANOMALY": 121.5691, "EPHEMERIS_TYPE": 0, "CLASSIFICATION_TYPE": "U", "NORAD_CAT_ID": 33973, "ELEMENT_SET_NO": 999, "REV_AT_EPOCH": 88752, "BSTAR": 0.00014130508, "MEAN_MOTION_DOT": 4.76e-06, "MEAN_MOTION_DDOT": 0}, "tle": {"line1": "1 33973U 93036FG  25357.24209086  .00000476  00000+0  14131-3 0  9998", "line2": "2 33973  74.0086  83.2841 0047384 259.7782 121.5691 14.45401675887526"}}, "geometry": {"type": "Point", "coordinates": [14.919694257202014, -72.75553478106639]}}, {"type": "Feature", "properties": {"norad_id": 33975, "name": "COSMOS 2251 DEB", "group": "cosmos-2251-debris", "lat": -64.62290373692942, "lon": -77.03207613931052, "alt_km": 815.0429909820514, "timestamp": "2025-12-23T16:57:12.747992+00:00", "meta": {"OBJECT_NAME": "COSMOS 2251 DEB", "OBJECT_ID": "1993-036FJ", "EPOCH": "2025-12-23T05:28:56.671680", "MEAN_MOTION": 14.00544623, "ECCENTRICITY": 0.01909341, "INCLINATION": 73.8016, "RA_OF_ASC_NODE": 66.0156, "ARG_OF_PERICENTER": 197.2886, "MEAN_ANOMALY": 162.1688, "EPHEMERIS_TYPE": 0, "CLASSIFICATION_TYPE": "U", "NORAD_CAT_ID": 33975, "ELEMENT_SET_NO": 999, "REV_AT_EPOCH": 85976, "BSTAR": 0.00048799465, "MEAN_MOTION_DOT": 8.23e-06, "MEAN_MOTION_DDOT": 0}, "tle": {"line1": "1 33975U 93036FJ  25357.22843370  .00000823  00000+0  48799-3 0  9991", "line2": "2 33975  73.8016  66.0156 0190934 197.2886 162.1688 14.00544623859761"}}, "geometry": {"type": "Point", "coordinates": [-77.03207613931052, -64.62290373692942]}}]}